{"type": "FeatureCollection", "features": [ {"type": "Feature", "properties": {"norad_id": 47104, "name": "FENGYUN 1C DEB", "group": "fengyun-1c-debris", "lat": 14.940337718426575, "lon": 16.623037006355286, "alt_km": 807.5232897725627, "timestamp": "2025-12-15T10:55:21.433940+00:00", "meta": {"OBJECT_NAME": "FENGYUN 1C DEB", "OBJECT_ID": "1999-025FCC", "EPOCH": "2025-12-05T07:14:15.762912", "MEAN_MOTION": 14.19416271, "ECCENTRICITY": 0.00406545, "INCLINATION": 98.9092, "RA_OF_ASC_NODE": 8.8127, "ARG_OF_PERICENTER": 358.5803, "MEAN_ANOMALY": 1.5251, "EPHEMERIS_TYPE": 0, "CLASSIFICATION_TYPE": "U", "NORAD_CAT_ID": 47104, "ELEMENT_SET_NO": 999, "REV_AT_EPOCH": 62267, "BSTAR": 0.00037828604, "MEAN_MOTION_DOT": 7.57e-06, "MEAN_MOTION_DDOT": 0}, "tle": {"line1": "1 47104U 99025FCC 25339.30157133  .00000757  00000+0  37829-3 0  9996", "line2": "2 47104  98.9092   8.8127 0040654 358.5803   1.5251 14.19416271622675"}}, "geometry": {"type": "Point", "coordinates": [16.623037006355286, 14.940337718426575]}}]}